OBJECT_NAME,OBJECT_ID,EPOCH,MEAN_MOTION,ECCENTRICITY,INCLINATION,RA_OF_ASC_NODE,ARG_OF_PERICENTER,MEAN_ANOMALY,EPHEMERIS_TYPE,CLASSIFICATION_TYPE,NORAD_CAT_ID,ELEMENT_SET_NO,REV_AT_EPOCH,BSTAR,MEAN_MOTION_DOT,MEAN_MOTION_DDOT
ONEWEB-0601,2022-166Z,2026-05-11T02:15:05.350752,13.21826809,.0002219,87.9236,251.3779,102.7872,257.3510,0,U,54665,999,16680,-.15354E-3,-.5E-6,0
ONEWEB-0602,2022-166AA,2026-05-11T01:25:24.420288,13.21828612,.0002093,87.9237,251.3908,93.6017,266.5357,0,U,54666,999,16664,.12057E-3,.63E-6,0
ONEWEB-0603,2022-166AB,2026-05-11T01:33:53.407008,13.21823854,.000206,87.9247,251.3430,99.5286,260.6081,0,U,54667,999,16657,.18163E-3,.88E-6,0
ONEWEB-0604,2022-166AC,2026-05-11T01:16:56.525664,13.21824762,.0001862,87.9250,251.3603,99.2416,260.8929,0,U,54668,999,16653,.1643E-3,.81E-6,0
ONEWEB-0605,2022-166AD,2026-05-11T01:07:14.378016,13.21828056,.0002352,87.9238,251.3785,113.8970,246.2411,0,U,54669,999,16660,.19634E-3,.94E-6,0
ONEWEB-0606,2022-166AE,2026-05-11T01:38:44.193984,13.21823756,.0001787,87.9238,251.3867,99.0548,261.0788,0,U,54670,999,16666,-.6667E-4,-.15E-6,0
ONEWEB-0607,2022-166AF,2026-05-11T00:50:18.674304,13.21827156,.0002072,87.9245,251.3619,98.0854,262.0515,0,U,54671,999,16663,.12017E-3,.63E-6,0
ONEWEB-0608,2022-166AG,2026-05-11T00:59:58.041600,13.21825108,.0002496,87.9247,251.3565,106.4823,253.6585,0,U,54672,999,16664,-.13609E-2,-.549E-5,0
ONEWEB-0610,2022-166AH,2026-05-11T02:19:56.103168,13.21826588,.000257,87.9238,251.3632,101.7474,258.3948,0,U,54673,999,16655,.1376E-3,.7E-6,0
ONEWEB-0611,2022-166AJ,2026-05-10T20:43:13.514304,13.21825161,.00018096,87.9237,251.4059,100.3066,259.8272,0,U,54674,999,16651,-.16255377E-3,-.54E-6,0
ONEWEB-0612,2022-166AK,2026-05-11T00:40:37.000128,13.21827541,.000212,87.9249,251.3643,102.2854,257.8517,0,U,54675,999,16652,.52153E-4,.35E-6,0
ONEWEB-0615,2022-166AL,2026-05-11T02:00:32.161248,13.21823836,.0001784,87.9241,251.3712,93.9295,266.2043,0,U,54676,999,16654,-.34964E-3,-.131E-5,0
ONEWEB-0655,2022-166AM,2026-05-11T01:26:37.811040,13.21824222,.0002142,87.9239,251.3776,94.4254,265.7125,0,U,54677,999,16653,-.13886E-4,.7E-7,0
ONEWEB-0659,2022-166AN,2026-05-11T01:50:51.852192,13.21825884,.0001882,87.9239,251.3745,101.3325,258.8021,0,U,54678,999,16662,-.32972E-4,-.1E-7,0
ONEWEB-0685,2022-166AP,2026-05-11T01:51:02.903616,13.21818038,.0002158,87.9236,251.3675,96.8325,263.3055,0,U,54679,999,16651,.13127E-3,.67E-6,0
ONEWEB-0712,2022-166AQ,2026-05-11T04:50:08.695392,13.16594806,.0002195,87.9100,236.1175,89.4047,270.7335,0,U,54680,999,16719,.23642E-3,.103E-5,0
ONEWEB-0714,2022-166AR,2026-05-11T01:58:08.085792,13.21826095,.0002086,87.9239,251.3630,94.7399,265.3973,0,U,54681,999,16663,-.13903E-3,-.44E-6,0
DONGPO 09,2022-167D,2026-05-11T05:01:02.402112,15.35516537,.0001366,97.6877,300.5972,231.0492,129.0629,0,U,54685,999,18977,.22274E-3,.7602E-4,0
DONGPO 08,2022-167E,2026-05-11T04:35:13.962912,15.32921295,.0006997,97.6838,297.9293,302.2082,57.8480,0,U,54686,999,18965,.20898E-3,.6565E-4,0
2022-167F,2022-167F,2026-05-11T02:31:39.292896,15.80676727,.0003219,97.6175,314.8150,182.8780,177.2469,0,U,54687,999,19095,.4877E-3,.93713E-3,0
DONGPO 10,2022-167H,2026-05-11T05:12:23.133888,15.33701055,.0004047,97.6922,299.8207,234.7810,125.3053,0,U,54689,999,18969,.21923E-3,.7061E-4,0
JILIN-1 GAOFEN 03D50,2022-167J,2026-05-11T05:02:19.220352,15.33736863,.0004585,97.6806,297.5740,227.8522,132.2331,0,U,54690,999,18968,.22279E-3,.7185E-4,0
JIAOTONG 5 (HEAD-2H),2022-167K,2026-05-11T04:01:21.365760,16.09478513,.000798,97.5766,320.1788,269.5654,90.4715,0,U,54691,999,19126,.13283E-2,.1179955E-1,.86783E-3
JILIN-1 GAOFEN 03D47,2022-167L,2026-05-11T04:25:48.424800,15.33072585,.0006454,97.6908,299.2693,244.6525,115.4049,0,U,54692,999,18967,.2174E-3,.6865E-4,0
JILIN-1 GAOFEN 03D49,2022-167N,2026-05-11T05:18:37.106784,15.36539813,.0004406,97.6785,299.7051,265.2499,94.8241,0,U,54694,999,18981,.22935E-3,.8095E-4,0
JILIN-1 GAOFEN 03D48,2022-167P,2026-05-11T04:01:05.597760,15.34431682,.00053229,97.6855,299.1360,241.4471,118.6235,0,U,54695,999,18971,.2189613E-3,.7219E-4,0
SHIYAN-20A (SY-20A),2022-169A,2026-05-11T03:56:48.595776,14.29515825,.00116781,59.9976,2.8004,151.5465,208.6210,0,U,54699,999,17806,.5200605E-4,-.3E-7,0
SHIYAN-20B (SY-20B),2022-169B,2026-05-11T04:02:52.446912,14.29528841,.00151894,59.9985,2.8545,171.4326,188.6971,0,U,54700,999,17806,.5474987E-4,.4E-7,0
GALAXY 35 (G-35),2022-170A,2026-05-11T05:10:58.256256,1.00271070,.0002166,0.0044,237.7611,179.8659,156.0381,0,U,54741,999,1252,0,-.152E-5,0
GALAXY 36 (G-36),2022-170B,2026-05-11T05:05:07.391040,1.00271305,.0002597,0.0129,205.2472,223.8774,147.1704,0,U,54742,999,1240,0,-.175E-5,0
